{"type": "FeatureCollection", "name": "pois", "crs": {"type": "name", "properties": {"name": "urn:ogc:def:crs:OGC:1.3:CRS84"}}, "features": [{"type": "Feature", "properties": {"osm_id": 7021797938, "osm_type": "node", "amenity": "parking"}, "geometry": {"type": "Point", "coordinates": [86.3128179, 42.3126086]}}, {"type": "Feature", "properties": {"osm_id": 7021798192, "osm_type": "node", "leisure": "stadium"}, "geometry": {"type": "Point", "coordinates": [86.3485478, 42.3396626]}}, {"type": "Feature", "properties": {"osm_id": 7021823845, "osm_type": "node", "leisure": "pitch"}, "geometry": {"type": "Point", "coordinates": [86.3027736, 42.3154988]}}, {"type": "Feature", "properties": {"osm_id": 7021850381, "osm_type": "node", "leisure": "stadium"}, "geometry": {"type": "Point", "coordinates": [86.404348, 42.3111271]}}, {"type": "Feature", "properties": {"osm_id": 7021850391, "osm_type": "node", "leisure": "stadium"}, "geometry": {"type": "Point", "coordinates": [86.3759442, 42.3208306]}}, {"type": "Feature", "properties": {"osm_id": 7021850397, "osm_type": "node", "leisure": "pitch"}, "geometry": {"type": "Point", "coordinates": [86.3766653, 42.320076]}}, {"type": "Feature", "properties": {"osm_id": 13428379395, "osm_type": "node", "amenity": "school", "education": "school", "name": "和静县第一中学"}, "geometry": {"type": "Point", "coordinates": [86.4004225, 42.3168776]}}]}